IRIDIUM 57              
1 25273U 98019B   24157.64275637  .00000663  00000+0  22494-3 0  9993
2 25273  86.3939 302.9586 0002110  92.2374 267.9064 14.35235094370766
IRIDIUM 63              
1 25286U 98021B   24157.46176737  .00000615  00000+0  20590-3 0  9993
2 25286  86.4003 239.9245 0002389  91.9785 268.1685 14.35787244369774
IRIDIUM 69              
1 25319U 98026A   24157.56476067  .00000851  00000+0  26392-3 0  9993
2 25319  86.3983 254.3047 0003222 141.2454 218.8977 14.40021583368843
IRIDIUM 71              
1 25320U 98026B   24157.49783478  .00000829  00000+0  25553-3 0  9997
2 25320  86.3987 249.0953 0000957 166.9631 193.1593 14.40335158369351
IRIDIUM 73              
1 25344U 98032C   24157.50520720  .00000874  00000+0  21805-3 0  9997
2 25344  86.4453 206.5569 0002396 107.6185 252.5282 14.50560440375933
IRIDIUM 82              
1 25467U 98051A   24157.61147160  .00014192  00000+0  72360-3 0  9999
2 25467  86.3746 291.2631 0125907 263.2671  95.4226 15.09881471366743
IRIDIUM 2               
1 25527U 98066A   24157.43757910  .00313565  00000+0  11620-2 0  9999
2 25527  85.4962 310.7961 0004043 262.0477  98.0343 15.87352069406062
